{
  "type": "FeatureCollection",
  "features": [
    {
      "type": "Feature",
      "properties": {
        "norad_id": 34924,
        "name": "COSMOS 2251 DEB",
        "group": "cosmos-2251-debris",
        "lat": 10.368816326714139,
        "lon": -107.69934482375986,
        "alt_km": 656.6974735314543,
        "timestamp": "2025-12-20T03:42:47.789782+00:00",
        "meta_object_name": "COSMOS 2251 DEB",
        "meta_object_id": "1993-036ADV",
        "meta_epoch": "2025-12-19T05:40:06.816000",
        "meta_mean_motion": 14.60086565,
        "meta_eccentricity": 0.005382,
        "meta_inclination": 74.0412,
        "meta_ra_of_asc_node": 77.0537,
        "meta_arg_of_pericenter": 160.1168,
        "meta_mean_anomaly": 222.7624,
        "meta_ephemeris_type": 0,
        "meta_classification_type": "U",
        "meta_norad_cat_id": 34924,
        "meta_element_set_no": 999,
        "meta_rev_at_epoch": 87818,
        "meta_bstar": 0.00058833,
        "meta_mean_motion_dot": 2.857e-05,
        "meta_mean_motion_ddot": 0,
        "tle_line1": "1 34924U 93036ADV 25353.23619000  .00002857  00000+0  58833-3 0  9993",
        "tle_line2": "2 34924  74.0412  77.0537 0053820 160.1168 222.7624 14.60086565878180"
      },
      "geometry": {
        "type": "Point",
        "coordinates": [
          -107.69934482375986,
          10.368816326714139
        ]
      }
    },
    {
      "type": "Feature",
      "properties": {
        "norad_id": 34944,
        "name": "COSMOS 2251 DEB",
        "group": "cosmos-2251-debris",
        "lat": 43.92894080289945,
        "lon": 22.346107675923808,
        "alt_km": 780.4442822682213,
        "timestamp": "2025-12-20T03:42:47.789792+00:00",
        "meta_object_name": "COSMOS 2251 DEB",
        "meta_object_id": "1993-036ADX",
        "meta_epoch": "2025-12-17T02:06:11.847168",
        "meta_mean_motion": 14.14195665,
        "meta_eccentricity": 0.02198727,
        "meta_inclination": 73.7495,
        "meta_ra_of_asc_node": 224.195,
        "meta_arg_of_pericenter": 70.8954,
        "meta_mean_anomaly": 291.5851,
        "meta_ephemeris_type": 0,
        "meta_classification_type": "U",
        "meta_norad_cat_id": 34944,
        "meta_element_set_no": 999,
        "meta_rev_at_epoch": 64144,
        "meta_bstar": 0.00030334686,
        "meta_mean_motion_dot": 7.03e-06,
        "meta_mean_motion_ddot": 0,
        "tle_line1": "1 34944U 93036ADX 25351.08763712  .00000703  00000+0  30335-3 0  9991",
        "tle_line2": "2 34944  73.7495 224.1950 0219872  70.8954 291.5851 14.14195665641448"
      },
      "geometry": {
        "type": "Point",
        "coordinates": [
          22.346107675923808,
          43.92894080289945
        ]
      }
    },
    {
      "type": "Feature",
      "properties": {
        "norad_id": 34946,
        "name": "COSMOS 2251 DEB",
        "group": "cosmos-2251-debris",
        "lat": 60.743530217190525,
        "lon": -1.333989231831442,
        "alt_km": 653.0935996590233,
        "timestamp": "2025-12-20T03:42:47.789802+00:00",
        "meta_object_name": "COSMOS 2251 DEB",
        "meta_object_id": "1993-036ADZ",
        "meta_epoch": "2025-12-19T07:42:37.791072",
        "meta_mean_motion": 14.6202881,
        "meta_eccentricity": 0.0048641,
        "meta_inclination": 74.0227,
        "meta_ra_of_asc_node": 329.5012,
        "meta_arg_of_pericenter": 104.6695,
        "meta_mean_anomaly": 255.9871,
        "meta_ephemeris_type": 0,
        "meta_classification_type": "U",
        "meta_norad_cat_id": 34946,
        "meta_element_set_no": 999,
        "meta_rev_at_epoch": 88305,
        "meta_bstar": 0.00040056,
        "meta_mean_motion_dot": 2.013e-05,
        "meta_mean_motion_ddot": 0,
        "tle_line1": "1 34946U 93036ADZ 25353.32127073  .00002013  00000+0  40056-3 0  9993",
        "tle_line2": "2 34946  74.0227 329.5012 0048641 104.6695 255.9871 14.62028810883059"
      },
      "geometry": {
        "type": "Point",
        "coordinates": [
          -1.333989231831442,
          60.743530217190525
        ]
      }
    },
    {
      "type": "Feature",
      "properties": {
        "norad_id": 34949,
        "name": "COSMOS 2251 DEB",
        "group": "cosmos-2251-debris",
        "lat": -68.72865059401636,
        "lon": 47.77225978665244,
        "alt_km": 615.2553889669571,
        "timestamp": "2025-12-20T03:42:47.789812+00:00",
        "meta_object_name": "COSMOS 2251 DEB",
        "meta_object_id": "1993-036AEC",
        "meta_epoch": "2025-12-19T13:23:46.428864",
        "meta_mean_motion": 14.7404327,
        "meta_eccentricity": 0.0080185,
        "meta_inclination": 74.0195,
        "meta_ra_of_asc_node": 96.3372,
        "meta_arg_of_pericenter": 240.2281,
        "meta_mean_anomaly": 119.09,
        "meta_ephemeris_type": 0,
        "meta_classification_type": "U",
        "meta_norad_cat_id": 34949,
        "meta_element_set_no": 999,
        "meta_rev_at_epoch": 88462,
        "meta_bstar": 0.00036068,
        "meta_mean_motion_dot": 2.463e-05,
        "meta_mean_motion_ddot": 0,
        "tle_line1": "1 34949U 93036AEC 25353.55817626  .00002463  00000+0  36068-3 0  9998",
        "tle_line2": "2 34949  74.0195  96.3372 0080185 240.2281 119.0900 14.74043270884628"
      },
      "geometry": {
        "type": "Point",
        "coordinates": [
          47.77225978665244,
          -68.72865059401636
        ]
      }
    },
    {
      "type": "Feature",
      "properties": {
        "norad_id": 34953,
        "name": "COSMOS 2251 DEB",
        "group": "cosmos-2251-debris",
        "lat": 51.83303574474457,
        "lon": 171.91021130371456,
        "alt_km": 680.7153465916881,
        "timestamp": "2025-12-20T03:42:47.789822+00:00",
        "meta_object_name": "COSMOS 2251 DEB",
        "meta_object_id": "1993-036AEG",
        "meta_epoch": "2025-12-19T19:47:21.727392",
        "meta_mean_motion": 14.69013601,
        "meta_eccentricity": 0.0058471,
        "meta_inclination": 74.0926,
        "meta_ra_of_asc_node": 13.8215,
        "meta_arg_of_pericenter": 3.8075,
        "meta_mean_anomaly": 175.3967,
        "meta_ephemeris_type": 0,
        "meta_classification_type": "U",
        "meta_norad_cat_id": 34953,
        "meta_element_set_no": 999,
        "meta_rev_at_epoch": 88232,
        "meta_bstar": 0.00051664,
        "meta_mean_motion_dot": 3.078e-05,
        "meta_mean_motion_ddot": 0,
        "tle_line1": "1 34953U 93036AEG 25353.82455703  .00003078  00000+0  51664-3 0  9999",
        "tle_line2": "2 34953  74.0926  13.8215 0058471   3.8075 175.3967 14.69013601882324"
      },
      "geometry": {
        "type": "Point",
        "coordinates": [
          171.91021130371456,
          51.83303574474457
        ]
      }
    },
    {
      "type": "Feature",
      "properties": {
        "norad_id": 34955,
        "name": "COSMOS 2251 DEB",
        "group": "cosmos-2251-debris",
        "lat": 21.03845970382344,
        "lon": -122.25643113789364,
        "alt_km": 557.2082177395214,
        "timestamp": "2025-12-20T03:42:47.789832+00:00",
        "meta_object_name": "COSMOS 2251 DEB",
        "meta_object_id": "1993-036AEJ",
        "meta_epoch": "2025-12-17T22:49:00.130944",
        "meta_mean_motion": 15.00628919,
        "meta_eccentricity": 0.00778127,
        "meta_inclination": 74.0384,
        "meta_ra_of_asc_node": 235.9048,
        "meta_arg_of_pericenter": 304.378,
        "meta_mean_anomaly": 55.0064,
        "meta_ephemeris_type": 0,
        "meta_classification_type": "U",
        "meta_norad_cat_id": 34955,
        "meta_element_set_no": 999,
        "meta_rev_at_epoch": 90112,
        "meta_bstar": 0.00052844899,
        "meta_mean_motion_dot": 7.088e-05,
        "meta_mean_motion_ddot": 0,
        "tle_line1": "1 34955U 93036AEJ 25351.95069596  .00007088  00000+0  52845-3 0  9991",
        "tle_line2": "2 34955  74.0384 235.9048 0077812 304.3780  55.0064 15.00628919901129"
      },
      "geometry": {
        "type": "Point",
        "coordinates": [
          -122.25643113789364,
          21.03845970382344
        ]
      }
    },
    {
      "type": "Feature",
      "properties": {
        "norad_id": 34962,
        "name": "COSMOS 2251 DEB",
        "group": "cosmos-2251-debris",
        "lat": 10.581864909631406,
        "lon": -3.5530881710694002,
        "alt_km": 745.391733193077,
        "timestamp": "2025-12-20T03:42:47.789842+00:00",
        "meta_object_name": "COSMOS 2251 DEB",
        "meta_object_id": "1993-036AER",
        "meta_epoch": "2025-12-18T22:43:00.041664",
        "meta_mean_motion": 14.4653439,
        "meta_eccentricity": 0.00188463,
        "meta_inclination": 74.0286,
        "meta_ra_of_asc_node": 181.7701,
        "meta_arg_of_pericenter": 294.3203,
        "meta_mean_anomaly": 65.5987,
        "meta_ephemeris_type": 0,
        "meta_classification_type": "U",
        "meta_norad_cat_id": 34962,
        "meta_element_set_no": 999,
        "meta_rev_at_epoch": 87668,
        "meta_bstar": 0.00031666528,
        "meta_mean_motion_dot": 1.116e-05,
        "meta_mean_motion_ddot": 0,
        "tle_line1": "1 34962U 93036AER 25352.94652826  .00001116  00000+0  31667-3 0  9998",
        "tle_line2": "2 34962  74.0286 181.7701 0018846 294.3203  65.5987 14.46534390876682"
      },
      "geometry": {
        "type": "Point",
        "coordinates": [
          -3.5530881710694002,
          10.581864909631406
        ]
      }
    }
  ]
}